{"type": "FeatureCollection", "features": [ {"type": "Feature", "properties": {"norad_id": 28659, "name": "DIRECTV 8", "group": "intelsat", "lat": -0.04059291654043517, "lon": -98.83404415676138, "alt_km": 35773.96679034846, "timestamp": "2025-12-17T19:34:07.712178+00:00", "meta": {"OBJECT_NAME": "DIRECTV 8", "OBJECT_ID": "2005-019A", "EPOCH": "2025-12-17T07:56:53.483712", "MEAN_MOTION": 1.00272909, "ECCENTRICITY": 0.00028656, "INCLINATION": 0.018, "RA_OF_ASC_NODE": 326.4689, "ARG_OF_PERICENTER": 308.6479, "MEAN_ANOMALY": 171.2805, "EPHEMERIS_TYPE": 0, "CLASSIFICATION_TYPE": "U", "NORAD_CAT_ID": 28659, "ELEMENT_SET_NO": 999, "REV_AT_EPOCH": 7525, "BSTAR": 0, "MEAN_MOTION_DOT": 2.6e-07, "MEAN_MOTION_DDOT": 0}, "tle": {"line1": "1 28659U 05019A   25351.33117458  .00000026  00000+0  00000+0 0  9999", "line2": "2 28659   0.0180 326.4689 0002865 308.6479 171.2805  1.00272909 75250"}}, "geometry": {"type": "Point", "coordinates": [-98.83404415676138, -0.04059291654043517]}}, {"type": "Feature", "properties": {"norad_id": 28702, "name": "GALAXY 28 (G-28)", "group": "intelsat", "lat": -1.4508684980949758, "lon": -68.5078194894128, "alt_km": 35775.0216212784, "timestamp": "2025-12-17T19:34:07.712189+00:00", "meta": {"OBJECT_NAME": "GALAXY 28 (G-28)", "OBJECT_ID": "2005-022A", "EPOCH": "2025-12-17T06:03:38.655936", "MEAN_MOTION": 1.00270854, "ECCENTRICITY": 0.0002891, "INCLINATION": 2.8309, "RA_OF_ASC_NODE": 81.2305, "ARG_OF_PERICENTER": 190.8852, "MEAN_ANOMALY": 176.2288, "EPHEMERIS_TYPE": 0, "CLASSIFICATION_TYPE": "U", "NORAD_CAT_ID": 28702, "ELEMENT_SET_NO": 999, "REV_AT_EPOCH": 5015, "BSTAR": 0, "MEAN_MOTION_DOT": -1.65e-06, "MEAN_MOTION_DDOT": 0}, "tle": {"line1": "1 28702U 05022A   25351.25253074 -.00000165  00000+0  00000+0 0  9993", "line2": "2 28702   2.8309  81.2305 0002891 190.8852 176.2288  1.00270854 50157"}}, "geometry": {"type": "Point", "coordinates": [-68.5078194894128, -1.4508684980949758]}}, {"type": "Feature", "properties": {"norad_id": 29236, "name": "GALAXY 16 (G-16)", "group": "intelsat", "lat": -0.0061911820105681505, "lon": -78.78155776744723, "alt_km": 35776.17635020057, "timestamp": "2025-12-17T19:34:07.712201+00:00", "meta": {"OBJECT_NAME": "GALAXY 16 (G-16)", "OBJECT_ID": "2006-023A", "EPOCH": "2025-12-17T06:14:51.385344", "MEAN_MOTION": 1.00272272, "ECCENTRICITY": 0.0002452, "INCLINATION": 0.0332, "RA_OF_ASC_NODE": 219.7084, "ARG_OF_PERICENTER": 41.8008, "MEAN_ANOMALY": 179.3456, "EPHEMERIS_TYPE": 0, "CLASSIFICATION_TYPE": "U", "NORAD_CAT_ID": 29236, "ELEMENT_SET_NO": 999, "REV_AT_EPOCH": 7114, "BSTAR": 0, "MEAN_MOTION_DOT": -1.02e-06, "MEAN_MOTION_DDOT": 0}, "tle": {"line1": "1 29236U 06023A   25351.26031696 -.00000102  00000+0  00000+0 0  9994", "line2": "2 29236   0.0332 219.7084 0002452  41.8008 179.3456  1.00272272 71148"}}, "geometry": {"type": "Point", "coordinates": [-78.78155776744723, -0.0061911820105681505]}}, {"type": "Feature", "properties": {"norad_id": 29494, "name": "DIRECTV 9S", "group": "intelsat", "lat": -0.5577843386966077, "lon": -81.00471807464717, "alt_km": 35774.259495403014, "timestamp": "2025-12-17T19:34:07.712213+00:00", "meta": {"OBJECT_NAME": "DIRECTV 9S", "OBJECT_ID": "2006-043A", "EPOCH": "2025-12-17T06:51:09.005760", "MEAN_MOTION": 1.00271922, "ECCENTRICITY": 0.00028284, "INCLINATION": 1.9514, "RA_OF_ASC_NODE": 83.1644, "ARG_OF_PERICENTER": 188, "MEAN_ANOMALY": 176.5764, "EPHEMERIS_TYPE": 0, "CLASSIFICATION_TYPE": "U", "NORAD_CAT_ID": 29494, "ELEMENT_SET_NO": 999, "REV_AT_EPOCH": 4956, "BSTAR": 0, "MEAN_MOTION_DOT": -9e-07, "MEAN_MOTION_DDOT": 0}, "tle": {"line1": "1 29494U 06043A   25351.28552090 -.00000090  00000+0  00000+0 0  9996", "line2": "2 29494   1.9514  83.1644 0002828 188.0000 176.5764  1.00271922 49567"}}, "geometry": {"type": "Point", "coordinates": [-81.00471807464717, -0.5577843386966077]}}, {"type": "Feature", "properties": {"norad_id": 31307, "name": "GALAXY 17 (G-17)", "group": "intelsat", "lat": -1.3913481609576301, "lon": -64.74211178504595, "alt_km": 35769.63955428835, "timestamp": "2025-12-17T19:34:07.712225+00:00", "meta": {"OBJECT_NAME": "GALAXY 17 (G-17)", "OBJECT_ID": "2007-016B", "EPOCH": "2025-12-17T06:03:38.655936", "MEAN_MOTION": 1.00272012, "ECCENTRICITY": 0.00055326, "INCLINATION": 2.5111, "RA_OF_ASC_NODE": 82.2351, "ARG_OF_PERICENTER": 167.9961, "MEAN_ANOMALY": 201.838, "EPHEMERIS_TYPE": 0, "CLASSIFICATION_TYPE": "U", "NORAD_CAT_ID": 31307, "ELEMENT_SET_NO": 999, "REV_AT_EPOCH": 6798, "BSTAR": 0, "MEAN_MOTION_DOT": -1.84e-06, "MEAN_MOTION_DDOT": 0}, "tle": {"line1": "1 31307U 07016B   25351.25253074 -.00000184  00000+0  00000+0 0  9994", "line2": "2 31307   2.5111  82.2351 0005532 167.9961 201.8380  1.00272012 67988"}}, "geometry": {"type": "Point", "coordinates": [-64.74211178504595, -1.3913481609576301]}}, {"type": "Feature", "properties": {"norad_id": 31862, "name": "DIRECTV 10", "group": "intelsat", "lat": 0.010367399241989386, "lon": -82.59470746286775, "alt_km": 35786.186328505915, "timestamp": "2025-12-17T19:34:07.712239+00:00", "meta": {"OBJECT_NAME": "DIRECTV 10", "OBJECT_ID": "2007-032A", "EPOCH": "2025-12-17T07:02:53.517408", "MEAN_MOTION": 1.00269426, "ECCENTRICITY": 3.669e-05, "INCLINATION": 0.0146, "RA_OF_ASC_NODE": 159.5204, "ARG_OF_PERICENTER": 48.9964, "MEAN_ANOMALY": 240.5776, "EPHEMERIS_TYPE": 0, "CLASSIFICATION_TYPE": "U", "NORAD_CAT_ID": 31862, "ELEMENT_SET_NO": 999, "REV_AT_EPOCH": 4376, "BSTAR": 0, "MEAN_MOTION_DOT": -7.8e-07, "MEAN_MOTION_DDOT": 0}, "tle": {"line1": "1 31862U 07032A   25351.29367497 -.00000078  00000+0  00000+0 0  9999", "line2": "2 31862   0.0146 159.5204 0000366  48.9964 240.5776  1.00269426 43765"}}, "geometry": {"type": "Point", "coordinates": [-82.59470746286775, 0.010367399241989386]}}, {"type": "Feature", "properties": {"norad_id": 32253, "name": "INTELSAT 11 (IS-11)", "group": "intelsat", "lat": 1.8565161839816298, "lon": -136.44287919444383, "alt_km": 36098.27975731115, "timestamp": "2025-12-17T19:34:07.712251+00:00", "meta": {"OBJECT_NAME": "INTELSAT 11 (IS-11)", "OBJECT_ID": "2007-044B", "EPOCH": "2025-12-17T07:08:04.843392", "MEAN_MOTION": 0.99051025, "ECCENTRICITY": 0.00086065, "INCLINATION": 3.0916, "RA_OF_ASC_NODE": 80.9265, "ARG_OF_PERICENTER": 167.7417, "MEAN_ANOMALY": 150.1516, "EPHEMERIS_TYPE": 0, "CLASSIFICATION_TYPE": "U", "NORAD_CAT_ID": 32253, "ELEMENT_SET_NO": 999, "REV_AT_EPOCH": 6664, "BSTAR": 0, "MEAN_MOTION_DOT": 2.1e-07, "MEAN_MOTION_DDOT": 0}, "tle": {"line1": "1 32253U 07044B   25351.29727828  .00000021  00000+0  00000+0 0  9992", "line2": "2 32253   3.0916  80.9265 0008606 167.7417 150.1516  0.99051025 66641"}}, "geometry": {"type": "Point", "coordinates": [-136.44287919444383, 1.8565161839816298]}}, {"type": "Feature", "properties": {"norad_id": 32388, "name": "HORIZONS-2", "group": "intelsat", "lat": -1.4875506855054752, "lon": -53.5672718063045, "alt_km": 35769.65439392207, "timestamp": "2025-12-17T19:34:07.712262+00:00", "meta": {"OBJECT_NAME": "HORIZONS-2", "OBJECT_ID": "2007-063B", "EPOCH": "2025-12-17T04:24:51.296256", "MEAN_MOTION": 1.00272984, "ECCENTRICITY": 0.00045758, "INCLINATION": 2.1326, "RA_OF_ASC_NODE": 82.9158, "ARG_OF_PERICENTER": 191.1459, "MEAN_ANOMALY": 164.4271, "EPHEMERIS_TYPE": 0, "CLASSIFICATION_TYPE": "U", "NORAD_CAT_ID": 32388, "ELEMENT_SET_NO": 999, "REV_AT_EPOCH": 6598, "BSTAR": 0, "MEAN_MOTION_DOT": -2.31e-06, "MEAN_MOTION_DDOT": 0}, "tle": {"line1": "1 32388U 07063B   25351.18392704 -.00000231  00000+0  00000+0 0  9995", "line2": "2 32388   2.1326  82.9158 0004575 191.1459 164.4271  1.00272984 65980"}}, "geometry": {"type": "Point", "coordinates": [-53.5672718063045, -1.4875506855054752]}}, {"type": "Feature", "properties": {"norad_id": 32729, "name": "DIRECTV 11", "group": "intelsat", "lat": -0.004092361277892063, "lon": -78.97348136821185, "alt_km": 35787.23411406786, "timestamp": "2025-12-17T19:34:07.712274+00:00", "meta": {"OBJECT_NAME": "DIRECTV 11", "OBJECT_ID": "2008-013A", "EPOCH": "2025-12-16T21:26:45.259296", "MEAN_MOTION": 1.00271167, "ECCENTRICITY": 5.224e-05, "INCLINATION": 0.0169, "RA_OF_ASC_NODE": 231.5018, "ARG_OF_PERICENTER": 293.6568, "MEAN_ANOMALY": 143.1244, "EPHEMERIS_TYPE": 0, "CLASSIFICATION_TYPE": "U", "NORAD_CAT_ID": 32729, "ELEMENT_SET_NO": 999, "REV_AT_EPOCH": 4376, "BSTAR": 0, "MEAN_MOTION_DOT": -1.01e-06, "MEAN_MOTION_DDOT": 0}, "tle": {"line1": "1 32729U 08013A   25350.89357939 -.00000101  00000+0  00000+0 0  9994", "line2": "2 32729   0.0169 231.5018 0000522 293.6568 143.1244  1.00271167 43763"}}, "geometry": {"type": "Point", "coordinates": [-78.97348136821185, -0.004092361277892063]}}, {"type": "Feature", "properties": {"norad_id": 32951, "name": "GALAXY 18 (G-18)", "group": "intelsat", "lat": -0.0030826333587254486, "lon": -102.80057569769832, "alt_km": 35774.20555486042, "timestamp": "2025-12-17T19:34:07.712285+00:00", "meta": {"OBJECT_NAME": "GALAXY 18 (G-18)", "OBJECT_ID": "2008-024A", "EPOCH": "2025-12-17T06:30:24.768000", "MEAN_MOTION": 1.00272901, "ECCENTRICITY": 0.00028344, "INCLINATION": 0.0052, "RA_OF_ASC_NODE": 80.5939, "ARG_OF_PERICENTER": 192.8645, "MEAN_ANOMALY": 147.2943, "EPHEMERIS_TYPE": 0, "CLASSIFICATION_TYPE": "U", "NORAD_CAT_ID": 32951, "ELEMENT_SET_NO": 999, "REV_AT_EPOCH": 4402, "BSTAR": 0, "MEAN_MOTION_DOT": 5e-07, "MEAN_MOTION_DDOT": 0}, "tle": {"line1": "1 32951U 08024A   25351.27112000  .00000050  00000+0  00000+0 0  9996", "line2": "2 32951   0.0052  80.5939 0002834 192.8645 147.2943  1.00272901 44027"}}, "geometry": {"type": "Point", "coordinates": [-102.80057569769832, -0.0030826333587254486]}}]}